[{"OBJECT_NAME":"ONEWEB-0058","OBJECT_ID":"2020-008AG","EPOCH":"2026-03-05T12:24:46.153440","MEAN_MOTION":13.10369694,"ECCENTRICITY":0.000216,"INCLINATION":87.8763,"RA_OF_ASC_NODE":56.9233,"ARG_OF_PERICENTER":85.7006,"MEAN_ANOMALY":274.4368,"EPHEMERIS_TYPE":0,"CLASSIFICATION_TYPE":"U","NORAD_CAT_ID":45161,"ELEMENT_SET_NO":999,"REV_AT_EPOCH":29484,"BSTAR":0.00068805,"MEAN_MOTION_DOT":2.53e-6,"MEAN_MOTION_DDOT":0},{"OBJECT_NAME":"ONEWEB-0059","OBJECT_ID":"2020-008AH","EPOCH":"2026-03-05T15:59:41.623872","MEAN_MOTION":13.10370959,"ECCENTRICITY":0.0001822,"INCLINATION":87.8765,"RA_OF_ASC_NODE":56.8934,"ARG_OF_PERICENTER":88.5043,"MEAN_ANOMALY":271.6293,"EPHEMERIS_TYPE":0,"CLASSIFICATION_TYPE":"U","NORAD_CAT_ID":45162,"ELEMENT_SET_NO":999,"REV_AT_EPOCH":29476,"BSTAR":0.0013289,"MEAN_MOTION_DOT":4.77e-6,"MEAN_MOTION_DDOT":0},{"OBJECT_NAME":"ONEWEB-0062","OBJECT_ID":"2020-008AJ","EPOCH":"2026-03-05T12:56:48.592320","MEAN_MOTION":13.10373148,"ECCENTRICITY":0.000215,"INCLINATION":87.8775,"RA_OF_ASC_NODE":56.9012,"ARG_OF_PERICENTER":96.428,"MEAN_ANOMALY":263.7092,"EPHEMERIS_TYPE":0,"CLASSIFICATION_TYPE":"U","NORAD_CAT_ID":45163,"ELEMENT_SET_NO":999,"REV_AT_EPOCH":29461,"BSTAR":-0.0019254,"MEAN_MOTION_DOT":-6.59e-6,"MEAN_MOTION_DDOT":0},{"OBJECT_NAME":"ONEWEB-0065","OBJECT_ID":"2020-008AK","EPOCH":"2026-03-05T11:50:54.326976","MEAN_MOTION":13.10375701,"ECCENTRICITY":0.0001797,"INCLINATION":87.8769,"RA_OF_ASC_NODE":56.919,"ARG_OF_PERICENTER":74.0766,"MEAN_ANOMALY":286.0559,"EPHEMERIS_TYPE":0,"CLASSIFICATION_TYPE":"U","NORAD_CAT_ID":45164,"ELEMENT_SET_NO":999,"REV_AT_EPOCH":29430,"BSTAR":0.0015386,"MEAN_MOTION_DOT":5.5e-6,"MEAN_MOTION_DDOT":0},{"OBJECT_NAME":"ONEWEB-0066","OBJECT_ID":"2020-020A","EPOCH":"2026-03-05T11:01:32.001024","MEAN_MOTION":13.11416454,"ECCENTRICITY":0.0001682,"INCLINATION":87.8861,"RA_OF_ASC_NODE":41.6912,"ARG_OF_PERICENTER":86.0356,"MEAN_ANOMALY":274.0965,"EPHEMERIS_TYPE":0,"CLASSIFICATION_TYPE":"U","NORAD_CAT_ID":45424,"ELEMENT_SET_NO":999,"REV_AT_EPOCH":28908,"BSTAR":0.0014658,"MEAN_MOTION_DOT":5.32e-6,"MEAN_MOTION_DDOT":0},{"OBJECT_NAME":"ONEWEB-0067","OBJECT_ID":"2020-020B","EPOCH":"2026-03-05T15:35:09.851712","MEAN_MOTION":13.11415488,"ECCENTRICITY":0.0001667,"INCLINATION":87.8872,"RA_OF_ASC_NODE":41.5617,"ARG_OF_PERICENTER":79.0806,"MEAN_ANOMALY":281.0509,"EPHEMERIS_TYPE":0,"CLASSIFICATION_TYPE":"U","NORAD_CAT_ID":45425,"ELEMENT_SET_NO":999,"REV_AT_EPOCH":28916,"BSTAR":-0.0014818,"MEAN_MOTION_DOT":-5.12e-6,"MEAN_MOTION_DDOT":0},{"OBJECT_NAME":"ONEWEB-0080","OBJECT_ID":"2020-020C","EPOCH":"2026-03-05T15:48:21.940992","MEAN_MOTION":13.11416325,"ECCENTRICITY":0.0002098,"INCLINATION":87.8851,"RA_OF_ASC_NODE":41.6502,"ARG_OF_PERICENTER":91.8382,"MEAN_ANOMALY":268.2986,"EPHEMERIS_TYPE":0,"CLASSIFICATION_TYPE":"U","NORAD_CAT_ID":45426,"ELEMENT_SET_NO":999,"REV_AT_EPOCH":28913,"BSTAR":-0.0010797,"MEAN_MOTION_DOT":-3.7e-6,"MEAN_MOTION_DDOT":0},{"OBJECT_NAME":"ONEWEB-0090","OBJECT_ID":"2020-020D","EPOCH":"2026-03-05T10:47:04.649568","MEAN_MOTION":13.11417496,"ECCENTRICITY":0.00019,"INCLINATION":87.8861,"RA_OF_ASC_NODE":41.6917,"ARG_OF_PERICENTER":84.334,"MEAN_ANOMALY":275.8005,"EPHEMERIS_TYPE":0,"CLASSIFICATION_TYPE":"U","NORAD_CAT_ID":45427,"ELEMENT_SET_NO":999,"REV_AT_EPOCH":28907,"BSTAR":0.00096376,"MEAN_MOTION_DOT":3.54e-6,"MEAN_MOTION_DDOT":0},{"OBJECT_NAME":"ONEWEB-0061","OBJECT_ID":"2020-020E","EPOCH":"2026-03-05T15:12:47.989728","MEAN_MOTION":13.1141606,"ECCENTRICITY":0.0001846,"INCLINATION":87.8857,"RA_OF_ASC_NODE":41.641,"ARG_OF_PERICENTER":85.0554,"MEAN_ANOMALY":275.0784,"EPHEMERIS_TYPE":0,"CLASSIFICATION_TYPE":"U","NORAD_CAT_ID":45428,"ELEMENT_SET_NO":999,"REV_AT_EPOCH":28905,"BSTAR":2.0084e-5,"MEAN_MOTION_DOT":2.0e-7,"MEAN_MOTION_DDOT":0},{"OBJECT_NAME":"ONEWEB-0081","OBJECT_ID":"2020-020F","EPOCH":"2026-03-05T11:06:24.352704","MEAN_MOTION":13.11415291,"ECCENTRICITY":0.0001648,"INCLINATION":87.8862,"RA_OF_ASC_NODE":41.6907,"ARG_OF_PERICENTER":81.6241,"MEAN_ANOMALY":278.5074,"EPHEMERIS_TYPE":0,"CLASSIFICATION_TYPE":"U","NORAD_CAT_ID":45429,"ELEMENT_SET_NO":999,"REV_AT_EPOCH":28914,"BSTAR":0.0015474,"MEAN_MOTION_DOT":5.61e-6,"MEAN_MOTION_DDOT":0},{"OBJECT_NAME":"ONEWEB-0069","OBJECT_ID":"2020-020G","EPOCH":"2026-03-05T10:50:32.694720","MEAN_MOTION":13.11418226,"ECCENTRICITY":0.0001778,"INCLINATION":87.8857,"RA_OF_ASC_NODE":41.6878,"ARG_OF_PERICENTER":80.9863,"MEAN_ANOMALY":279.1466,"EPHEMERIS_TYPE":0,"CLASSIFICATION_TYPE":"U","NORAD_CAT_ID":45430,"ELEMENT_SET_NO":999,"REV_AT_EPOCH":28907,"BSTAR":0.0012427,"MEAN_MOTION_DOT":4.53e-6,"MEAN_MOTION_DDOT":0},{"OBJECT_NAME":"ONEWEB-0031","OBJECT_ID":"2020-020H","EPOCH":"2026-03-05T12:00:06.699456","MEAN_MOTION":13.11416323,"ECCENTRICITY":0.0002024,"INCLINATION":87.8843,"RA_OF_ASC_NODE":41.6968,"ARG_OF_PERICENTER":88.1098,"MEAN_ANOMALY":272.0262,"EPHEMERIS_TYPE":0,"CLASSIFICATION_TYPE":"U","NORAD_CAT_ID":45431,"ELEMENT_SET_NO":999,"REV_AT_EPOCH":28906,"BSTAR":-0.0014843,"MEAN_MOTION_DOT":-5.13e-6,"MEAN_MOTION_DDOT":0},{"OBJECT_NAME":"ONEWEB-0027","OBJECT_ID":"2020-020J","EPOCH":"2026-03-05T08:22:56.535744","MEAN_MOTION":13.17647089,"ECCENTRICITY":0.0002237,"INCLINATION":87.9151,"RA_OF_ASC_NODE":26.4621,"ARG_OF_PERICENTER":79.236,"MEAN_ANOMALY":280.9024,"EPHEMERIS_TYPE":0,"CLASSIFICATION_TYPE":"U","NORAD_CAT_ID":45432,"ELEMENT_SET_NO":999,"REV_AT_EPOCH":29268,"BSTAR":0.00022223,"MEAN_MOTION_DOT":9.9e-7,"MEAN_MOTION_DDOT":0},{"OBJECT_NAME":"ONEWEB-0064","OBJECT_ID":"2020-020K","EPOCH":"2026-03-05T15:37:24.409344","MEAN_MOTION":13.11415406,"ECCENTRICITY":0.0002001,"INCLINATION":87.8851,"RA_OF_ASC_NODE":41.656,"ARG_OF_PERICENTER":84.537,"MEAN_ANOMALY":275.5986,"EPHEMERIS_TYPE":0,"CLASSIFICATION_TYPE":"U","NORAD_CAT_ID":45433,"ELEMENT_SET_NO":999,"REV_AT_EPOCH":28911,"BSTAR":-0.0014819,"MEAN_MOTION_DOT":-5.12e-6,"MEAN_MOTION_DDOT":0},{"OBJECT_NAME":"ONEWEB-0018","OBJECT_ID":"2020-020L","EPOCH":"2026-03-05T10:54:12.455712","MEAN_MOTION":13.11417888,"ECCENTRICITY":0.0001777,"INCLINATION":87.8862,"RA_OF_ASC_NODE":41.6918,"ARG_OF_PERICENTER":88.1314,"MEAN_ANOMALY":272.0018,"EPHEMERIS_TYPE":0,"CLASSIFICATION_TYPE":"U","NORAD_CAT_ID":45434,"ELEMENT_SET_NO":999,"REV_AT_EPOCH":28903,"BSTAR":0.0013756,"MEAN_MOTION_DOT":5.0e-6,"MEAN_MOTION_DDOT":0},{"OBJECT_NAME":"ONEWEB-0083","OBJECT_ID":"2020-020M","EPOCH":"2026-03-05T10:40:46.524288","MEAN_MOTION":13.11417899,"ECCENTRICITY":0.0001888,"INCLINATION":87.8866,"RA_OF_ASC_NODE":41.6811,"ARG_OF_PERICENTER":85.0731,"MEAN_ANOMALY":275.0612,"EPHEMERIS_TYPE":0,"CLASSIFICATION_TYPE":"U","NORAD_CAT_ID":45435,"ELEMENT_SET_NO":999,"REV_AT_EPOCH":28907,"BSTAR":0.00052947,"MEAN_MOTION_DOT":2.0e-6,"MEAN_MOTION_DDOT":0},{"OBJECT_NAME":"ONEWEB-0095","OBJECT_ID":"2020-020N","EPOCH":"2026-03-05T15:57:07.906176","MEAN_MOTION":13.11419231,"ECCENTRICITY":0.0002288,"INCLINATION":87.8862,"RA_OF_ASC_NODE":41.6467,"ARG_OF_PERICENTER":66.4865,"MEAN_ANOMALY":293.6503,"EPHEMERIS_TYPE":0,"CLASSIFICATION_TYPE":"U","NORAD_CAT_ID":45436,"ELEMENT_SET_NO":999,"REV_AT_EPOCH":28910,"BSTAR":-0.00061605,"MEAN_MOTION_DOT":-2.06e-6,"MEAN_MOTION_DDOT":0}]
