ONEWEB-0058             
1 45161U 20008AG  26064.51720085  .00000253  00000+0  68805-3 0  9992
2 45161  87.8763  56.9233 0002160  85.7006 274.4368 13.10369694294844
ONEWEB-0059             
1 45162U 20008AH  26064.66645398  .00000477  00000+0  13289-2 0  9995
2 45162  87.8765  56.8934 0001822  88.5043 271.6293 13.10370959294763
ONEWEB-0062             
1 45163U 20008AJ  26064.53945130 -.00000659  00000+0 -19254-2 0  9991
2 45163  87.8775  56.9012 0002150  96.4280 263.7092 13.10373148294615
ONEWEB-0065             
1 45164U 20008AK  26064.49368434  .00000550  00000+0  15386-2 0  9993
2 45164  87.8769  56.9190 0001797  74.0766 286.0559 13.10375701294302
ONEWEB-0066             
1 45424U 20020A   26064.45939816  .00000532  00000+0  14658-2 0  9991
2 45424  87.8861  41.6912 0001682  86.0356 274.0965 13.11416454289087
ONEWEB-0067             
1 45425U 20020B   26064.64941958 -.00000512  00000+0 -14818-2 0  9991
2 45425  87.8872  41.5617 0001667  79.0806 281.0509 13.11415488289163
ONEWEB-0080             
1 45426U 20020C   26064.65858728 -.00000370  00000+0 -10797-2 0  9999
2 45426  87.8851  41.6502 0002098  91.8382 268.2986 13.11416325289139
ONEWEB-0090             
1 45427U 20020D   26064.44935937  .00000354  00000+0  96376-3 0  9993
2 45427  87.8861  41.6917 0001900  84.3340 275.8005 13.11417496289072
ONEWEB-0061             
1 45428U 20020E   26064.63388877  .00000020  00000+0  20084-4 0  9994
2 45428  87.8857  41.6410 0001846  85.0554 275.0784 13.11416060289050
ONEWEB-0081             
1 45429U 20020F   26064.46278186  .00000561  00000+0  15474-2 0  9992
2 45429  87.8862  41.6907 0001648  81.6241 278.5074 13.11415291289148
ONEWEB-0069             
1 45430U 20020G   26064.45176730  .00000453  00000+0  12427-2 0  9990
2 45430  87.8857  41.6878 0001778  80.9863 279.1466 13.11418226289072
ONEWEB-0031             
1 45431U 20020H   26064.50007754 -.00000513  00000+0 -14843-2 0  9999
2 45431  87.8843  41.6968 0002024  88.1098 272.0262 13.11416323289064
ONEWEB-0027             
1 45432U 20020J   26064.34926546  .00000099  00000+0  22223-3 0  9990
2 45432  87.9151  26.4621 0002237  79.2360 280.9024 13.17647089292681
ONEWEB-0064             
1 45433U 20020K   26064.65097696 -.00000512  00000+0 -14819-2 0  9993
2 45433  87.8851  41.6560 0002001  84.5370 275.5986 13.11415406289119
ONEWEB-0018             
1 45434U 20020L   26064.45431083  .00000500  00000+0  13756-2 0  9998
2 45434  87.8862  41.6918 0001777  88.1314 272.0018 13.11417888289031
ONEWEB-0083             
1 45435U 20020M   26064.44498292  .00000200  00000+0  52947-3 0  9996
2 45435  87.8866  41.6811 0001888  85.0731 275.0612 13.11417899289079
ONEWEB-0095             
1 45436U 20020N   26064.66467484 -.00000206  00000+0 -61605-3 0  9999
2 45436  87.8862  41.6467 0002288  66.4865 293.6503 13.11419231289100
